<?xml version="1.0" encoding="UTF-8"?>
<ndm xmlns:xsi="http://www.w3.org/2001/XMLSchema-instance" xsi:noNamespaceSchemaLocation="https://sanaregistry.org/r/ndmxml_unqualified/ndmxml-2.0.0-master-2.0.xsd">
<omm id="CCSDS_OMM_VERS" version="2.0">
<header><CREATION_DATE/><ORIGINATOR/></header><body><segment><metadata><OBJECT_NAME>KUIPER-00079</OBJECT_NAME><OBJECT_ID>2025-151L</OBJECT_ID><CENTER_NAME>EARTH</CENTER_NAME><REF_FRAME>TEME</REF_FRAME><TIME_SYSTEM>UTC</TIME_SYSTEM><MEAN_ELEMENT_THEORY>SGP4</MEAN_ELEMENT_THEORY></metadata><data><meanElements><EPOCH>2025-10-16T01:58:05.822112</EPOCH><MEAN_MOTION>14.79967284</MEAN_MOTION><ECCENTRICITY>.0012938</ECCENTRICITY><INCLINATION>51.8984</INCLINATION><RA_OF_ASC_NODE>219.7286</RA_OF_ASC_NODE><ARG_OF_PERICENTER>118.6612</ARG_OF_PERICENTER><MEAN_ANOMALY>241.5653</MEAN_ANOMALY></meanElements><tleParameters><EPHEMERIS_TYPE>0</EPHEMERIS_TYPE><CLASSIFICATION_TYPE>U</CLASSIFICATION_TYPE><NORAD_CAT_ID>64826</NORAD_CAT_ID><ELEMENT_SET_NO>999</ELEMENT_SET_NO><REV_AT_EPOCH>1509</REV_AT_EPOCH><BSTAR>.1012E-2</BSTAR><MEAN_MOTION_DOT>.7516E-4</MEAN_MOTION_DOT><MEAN_MOTION_DDOT>0</MEAN_MOTION_DDOT></tleParameters></data></segment></body></omm>
<omm id="CCSDS_OMM_VERS" version="2.0">
<header><CREATION_DATE/><ORIGINATOR/></header><body><segment><metadata><OBJECT_NAME>KUIPER-00080</OBJECT_NAME><OBJECT_ID>2025-151M</OBJECT_ID><CENTER_NAME>EARTH</CENTER_NAME><REF_FRAME>TEME</REF_FRAME><TIME_SYSTEM>UTC</TIME_SYSTEM><MEAN_ELEMENT_THEORY>SGP4</MEAN_ELEMENT_THEORY></metadata><data><meanElements><EPOCH>2025-10-16T01:51:15.299424</EPOCH><MEAN_MOTION>14.79940370</MEAN_MOTION><ECCENTRICITY>.0005897</ECCENTRICITY><INCLINATION>51.8986</INCLINATION><RA_OF_ASC_NODE>220.0480</RA_OF_ASC_NODE><ARG_OF_PERICENTER>133.0971</ARG_OF_PERICENTER><MEAN_ANOMALY>227.0485</MEAN_ANOMALY></meanElements><tleParameters><EPHEMERIS_TYPE>0</EPHEMERIS_TYPE><CLASSIFICATION_TYPE>U</CLASSIFICATION_TYPE><NORAD_CAT_ID>64827</NORAD_CAT_ID><ELEMENT_SET_NO>999</ELEMENT_SET_NO><REV_AT_EPOCH>1389</REV_AT_EPOCH><BSTAR>.62817E-3</BSTAR><MEAN_MOTION_DOT>.4571E-4</MEAN_MOTION_DOT><MEAN_MOTION_DDOT>0</MEAN_MOTION_DDOT></tleParameters></data></segment></body></omm>
<omm id="CCSDS_OMM_VERS" version="2.0">
<header><CREATION_DATE/><ORIGINATOR/></header><body><segment><metadata><OBJECT_NAME>KUIPER-00082</OBJECT_NAME><OBJECT_ID>2025-151N</OBJECT_ID><CENTER_NAME>EARTH</CENTER_NAME><REF_FRAME>TEME</REF_FRAME><TIME_SYSTEM>UTC</TIME_SYSTEM><MEAN_ELEMENT_THEORY>SGP4</MEAN_ELEMENT_THEORY></metadata><data><meanElements><EPOCH>2025-10-16T04:00:03.000096</EPOCH><MEAN_MOTION>15.00417523</MEAN_MOTION><ECCENTRICITY>.0005029</ECCENTRICITY><INCLINATION>51.9207</INCLINATION><RA_OF_ASC_NODE>208.2021</RA_OF_ASC_NODE><ARG_OF_PERICENTER>144.8430</ARG_OF_PERICENTER><MEAN_ANOMALY>250.9211</MEAN_ANOMALY></meanElements><tleParameters><EPHEMERIS_TYPE>0</EPHEMERIS_TYPE><CLASSIFICATION_TYPE>U</CLASSIFICATION_TYPE><NORAD_CAT_ID>64828</NORAD_CAT_ID><ELEMENT_SET_NO>999</ELEMENT_SET_NO><REV_AT_EPOCH>590</REV_AT_EPOCH><BSTAR>-.7651E-1</BSTAR><MEAN_MOTION_DOT>-.900292E-2</MEAN_MOTION_DOT><MEAN_MOTION_DDOT>0</MEAN_MOTION_DDOT></tleParameters></data></segment></body></omm>
<omm id="CCSDS_OMM_VERS" version="2.0">
<header><CREATION_DATE/><ORIGINATOR/></header><body><segment><metadata><OBJECT_NAME>KUIPER-00083</OBJECT_NAME><OBJECT_ID>2025-151P</OBJECT_ID><CENTER_NAME>EARTH</CENTER_NAME><REF_FRAME>TEME</REF_FRAME><TIME_SYSTEM>UTC</TIME_SYSTEM><MEAN_ELEMENT_THEORY>SGP4</MEAN_ELEMENT_THEORY></metadata><data><meanElements><EPOCH>2025-10-16T01:10:34.152960</EPOCH><MEAN_MOTION>14.80074085</MEAN_MOTION><ECCENTRICITY>.0010877</ECCENTRICITY><INCLINATION>51.8985</INCLINATION><RA_OF_ASC_NODE>215.1839</RA_OF_ASC_NODE><ARG_OF_PERICENTER>121.3924</ARG_OF_PERICENTER><MEAN_ANOMALY>238.8104</MEAN_ANOMALY></meanElements><tleParameters><EPHEMERIS_TYPE>0</EPHEMERIS_TYPE><CLASSIFICATION_TYPE>U</CLASSIFICATION_TYPE><NORAD_CAT_ID>64829</NORAD_CAT_ID><ELEMENT_SET_NO>999</ELEMENT_SET_NO><REV_AT_EPOCH>1514</REV_AT_EPOCH><BSTAR>.12024E-2</BSTAR><MEAN_MOTION_DOT>.8994E-4</MEAN_MOTION_DOT><MEAN_MOTION_DDOT>0</MEAN_MOTION_DDOT></tleParameters></data></segment></body></omm>
<omm id="CCSDS_OMM_VERS" version="2.0">
<header><CREATION_DATE/><ORIGINATOR/></header><body><segment><metadata><OBJECT_NAME>KUIPER-00084</OBJECT_NAME><OBJECT_ID>2025-151Q</OBJECT_ID><CENTER_NAME>EARTH</CENTER_NAME><REF_FRAME>TEME</REF_FRAME><TIME_SYSTEM>UTC</TIME_SYSTEM><MEAN_ELEMENT_THEORY>SGP4</MEAN_ELEMENT_THEORY></metadata><data><meanElements><EPOCH>2025-10-16T02:32:03.852096</EPOCH><MEAN_MOTION>14.79875346</MEAN_MOTION><ECCENTRICITY>.0011927</ECCENTRICITY><INCLINATION>51.8985</INCLINATION><RA_OF_ASC_NODE>224.9161</RA_OF_ASC_NODE><ARG_OF_PERICENTER>98.9337</ARG_OF_PERICENTER><MEAN_ANOMALY>261.2976</MEAN_ANOMALY></meanElements><tleParameters><EPHEMERIS_TYPE>0</EPHEMERIS_TYPE><CLASSIFICATION_TYPE>U</CLASSIFICATION_TYPE><NORAD_CAT_ID>64830</NORAD_CAT_ID><ELEMENT_SET_NO>999</ELEMENT_SET_NO><REV_AT_EPOCH>1382</REV_AT_EPOCH><BSTAR>-.2911E-2</BSTAR><MEAN_MOTION_DOT>-.2234E-3</MEAN_MOTION_DOT><MEAN_MOTION_DDOT>0</MEAN_MOTION_DDOT></tleParameters></data></segment></body></omm>
<omm id="CCSDS_OMM_VERS" version="2.0">
<header><CREATION_DATE/><ORIGINATOR/></header><body><segment><metadata><OBJECT_NAME>KUIPER-00085</OBJECT_NAME><OBJECT_ID>2025-151R</OBJECT_ID><CENTER_NAME>EARTH</CENTER_NAME><REF_FRAME>TEME</REF_FRAME><TIME_SYSTEM>UTC</TIME_SYSTEM><MEAN_ELEMENT_THEORY>SGP4</MEAN_ELEMENT_THEORY></metadata><data><meanElements><EPOCH>2025-10-16T04:00:03.000096</EPOCH><MEAN_MOTION>15.00774275</MEAN_MOTION><ECCENTRICITY>.0007827</ECCENTRICITY><INCLINATION>51.8941</INCLINATION><RA_OF_ASC_NODE>208.3556</RA_OF_ASC_NODE><ARG_OF_PERICENTER>114.3171</ARG_OF_PERICENTER><MEAN_ANOMALY>92.8772</MEAN_ANOMALY></meanElements><tleParameters><EPHEMERIS_TYPE>0</EPHEMERIS_TYPE><CLASSIFICATION_TYPE>U</CLASSIFICATION_TYPE><NORAD_CAT_ID>64831</NORAD_CAT_ID><ELEMENT_SET_NO>999</ELEMENT_SET_NO><REV_AT_EPOCH>350</REV_AT_EPOCH><BSTAR>.22824E-2</BSTAR><MEAN_MOTION_DOT>.29156E-3</MEAN_MOTION_DOT><MEAN_MOTION_DDOT>0</MEAN_MOTION_DDOT></tleParameters></data></segment></body></omm>
<omm id="CCSDS_OMM_VERS" version="2.0">
<header><CREATION_DATE/><ORIGINATOR/></header><body><segment><metadata><OBJECT_NAME>KUIPER-00086</OBJECT_NAME><OBJECT_ID>2025-151S</OBJECT_ID><CENTER_NAME>EARTH</CENTER_NAME><REF_FRAME>TEME</REF_FRAME><TIME_SYSTEM>UTC</TIME_SYSTEM><MEAN_ELEMENT_THEORY>SGP4</MEAN_ELEMENT_THEORY></metadata><data><meanElements><EPOCH>2025-10-16T01:55:15.475008</EPOCH><MEAN_MOTION>14.79937010</MEAN_MOTION><ECCENTRICITY>.0011894</ECCENTRICITY><INCLINATION>51.9011</INCLINATION><RA_OF_ASC_NODE>217.5406</RA_OF_ASC_NODE><ARG_OF_PERICENTER>121.1924</ARG_OF_PERICENTER><MEAN_ANOMALY>239.0206</MEAN_ANOMALY></meanElements><tleParameters><EPHEMERIS_TYPE>0</EPHEMERIS_TYPE><CLASSIFICATION_TYPE>U</CLASSIFICATION_TYPE><NORAD_CAT_ID>64832</NORAD_CAT_ID><ELEMENT_SET_NO>999</ELEMENT_SET_NO><REV_AT_EPOCH>1392</REV_AT_EPOCH><BSTAR>-.70857E-4</BSTAR><MEAN_MOTION_DOT>-.765E-5</MEAN_MOTION_DOT><MEAN_MOTION_DDOT>0</MEAN_MOTION_DDOT></tleParameters></data></segment></body></omm>
<omm id="CCSDS_OMM_VERS" version="2.0">
<header><CREATION_DATE/><ORIGINATOR/></header><body><segment><metadata><OBJECT_NAME>KUIPER-00087</OBJECT_NAME><OBJECT_ID>2025-151T</OBJECT_ID><CENTER_NAME>EARTH</CENTER_NAME><REF_FRAME>TEME</REF_FRAME><TIME_SYSTEM>UTC</TIME_SYSTEM><MEAN_ELEMENT_THEORY>SGP4</MEAN_ELEMENT_THEORY></metadata><data><meanElements><EPOCH>2025-10-16T04:00:03.000096</EPOCH><MEAN_MOTION>15.22116042</MEAN_MOTION><ECCENTRICITY>.00061</ECCENTRICITY><INCLINATION>51.8811</INCLINATION><RA_OF_ASC_NODE>204.8646</RA_OF_ASC_NODE><ARG_OF_PERICENTER>124.9078</ARG_OF_PERICENTER><MEAN_ANOMALY>97.8518</MEAN_ANOMALY></meanElements><tleParameters><EPHEMERIS_TYPE>0</EPHEMERIS_TYPE><CLASSIFICATION_TYPE>U</CLASSIFICATION_TYPE><NORAD_CAT_ID>64833</NORAD_CAT_ID><ELEMENT_SET_NO>999</ELEMENT_SET_NO><REV_AT_EPOCH>591</REV_AT_EPOCH><BSTAR>.2472E-2</BSTAR><MEAN_MOTION_DOT>.5755E-3</MEAN_MOTION_DOT><MEAN_MOTION_DDOT>0</MEAN_MOTION_DDOT></tleParameters></data></segment></body></omm>

</ndm>
