KUIPER-00079            
1 64826U 25151L   25289.08201183  .00007516  00000+0  10120-2 0  9993
2 64826  51.8984 219.7286 0012938 118.6612 241.5653 14.79967284 15094
KUIPER-00080            
1 64827U 25151M   25289.07726041  .00004571  00000+0  62817-3 0  9997
2 64827  51.8986 220.0480 0005897 133.0971 227.0485 14.79940370 13898
KUIPER-00082            
1 64828U 25151N   25289.16670139 -.00900292  00000+0 -76510-1 0  9994
2 64828  51.9207 208.2021 0005029 144.8430 250.9211 15.00417523  5901
KUIPER-00083            
1 64829U 25151P   25289.04900640  .00008994  00000+0  12024-2 0  9992
2 64829  51.8985 215.1839 0010877 121.3924 238.8104 14.80074085 15145
KUIPER-00084            
1 64830U 25151Q   25289.10560014 -.00022340  00000+0 -29110-2 0  9995
2 64830  51.8985 224.9161 0011927  98.9337 261.2976 14.79875346 13824
KUIPER-00085            
1 64831U 25151R   25289.16670139  .00029156  00000+0  22824-2 0  9997
2 64831  51.8941 208.3556 0007827 114.3171  92.8772 15.00774275  3504
KUIPER-00086            
1 64832U 25151S   25289.08004022 -.00000765  00000+0 -70857-4 0  9999
2 64832  51.9011 217.5406 0011894 121.1924 239.0206 14.79937010 13928
KUIPER-00087            
1 64833U 25151T   25289.16670139  .00057550  00000+0  24720-2 0  9995
2 64833  51.8811 204.8646 0006100 124.9078  97.8518 15.22116042  5915
